{"type": "FeatureCollection", "features": [ {"type": "Feature", "properties": {"norad_id": 32289, "name": "YAOGAN-3", "group": "resource", "lat": -56.19392744836777, "lon": -164.20890638673882, "alt_km": 606.0231013458679, "timestamp": "2025-12-27T03:58:43.834724+00:00", "meta": {"OBJECT_NAME": "YAOGAN-3", "OBJECT_ID": "2007-055A", "EPOCH": "2025-12-26T20:28:17.023584", "MEAN_MOTION": 14.89924174, "ECCENTRICITY": 0.0001214, "INCLINATION": 97.8358, "RA_OF_ASC_NODE": 27.3496, "ARG_OF_PERICENTER": 82.2182, "MEAN_ANOMALY": 277.9173, "EPHEMERIS_TYPE": 0, "CLASSIFICATION_TYPE": "U", "NORAD_CAT_ID": 32289, "ELEMENT_SET_NO": 999, "REV_AT_EPOCH": 98019, "BSTAR": 9.5118e-05, "MEAN_MOTION_DOT": 8.6e-06, "MEAN_MOTION_DDOT": 0}, "tle": {"line1": "1 32289U 07055A   25360.85297481  .00000860  00000+0  95118-4 0  9992", "line2": "2 32289  97.8358  27.3496 0001214  82.2182 277.9173 14.89924174980190"}}, "geometry": {"type": "Point", "coordinates": [-164.20890638673882, -56.19392744836777]}}, {"type": "Feature", "properties": {"norad_id": 32376, "name": "COSMO-SKYMED 2", "group": "resource", "lat": 64.03790374617775, "lon": 18.799364542278507, "alt_km": 615.5101208604683, "timestamp": "2025-12-27T03:58:43.834733+00:00", "meta": {"OBJECT_NAME": "COSMO-SKYMED 2", "OBJECT_ID": "2007-059A", "EPOCH": "2025-12-26T19:21:42.179616", "MEAN_MOTION": 14.82160072, "ECCENTRICITY": 0.0001295, "INCLINATION": 97.8807, "RA_OF_ASC_NODE": 181.9188, "ARG_OF_PERICENTER": 83.1489, "MEAN_ANOMALY": 276.9871, "EPHEMERIS_TYPE": 0, "CLASSIFICATION_TYPE": "U", "NORAD_CAT_ID": 32376, "ELEMENT_SET_NO": 999, "REV_AT_EPOCH": 97646, "BSTAR": 8.4526e-05, "MEAN_MOTION_DOT": 6.21e-06, "MEAN_MOTION_DDOT": 0}, "tle": {"line1": "1 32376U 07059A   25360.80673819  .00000621  00000+0  84526-4 0  9997", "line2": "2 32376  97.8807 181.9188 0001295  83.1489 276.9871 14.82160072976461"}}, "geometry": {"type": "Point", "coordinates": [18.799364542278507, 64.03790374617775]}}, {"type": "Feature", "properties": {"norad_id": 32382, "name": "RADARSAT-2", "group": "resource", "lat": -57.88302458080188, "lon": 171.6286240520874, "alt_km": 799.5801499458121, "timestamp": "2025-12-27T03:58:43.834742+00:00", "meta": {"OBJECT_NAME": "RADARSAT-2", "OBJECT_ID": "2007-061A", "EPOCH": "2025-12-26T21:49:38.449056", "MEAN_MOTION": 14.29985477, "ECCENTRICITY": 0.0001142, "INCLINATION": 98.5801, "RA_OF_ASC_NODE": 5.2933, "ARG_OF_PERICENTER": 86.6696, "MEAN_ANOMALY": 273.4617, "EPHEMERIS_TYPE": 0, "CLASSIFICATION_TYPE": "U", "NORAD_CAT_ID": 32382, "ELEMENT_SET_NO": 999, "REV_AT_EPOCH": 94133, "BSTAR": 4.2169e-05, "MEAN_MOTION_DOT": 6.5e-07, "MEAN_MOTION_DDOT": 0}, "tle": {"line1": "1 32382U 07061A   25360.90947279  .00000065  00000+0  42169-4 0  9991", "line2": "2 32382  98.5801   5.2933 0001142  86.6696 273.4617 14.29985477941338"}}, "geometry": {"type": "Point", "coordinates": [171.6286240520874, -57.88302458080188]}}, {"type": "Feature", "properties": {"norad_id": 32783, "name": "CARTOSAT-2A", "group": "resource", "lat": 81.98893094806029, "lon": -26.06898263559737, "alt_km": 630.2305980999272, "timestamp": "2025-12-27T03:58:43.834752+00:00", "meta": {"OBJECT_NAME": "CARTOSAT-2A", "OBJECT_ID": "2008-021A", "EPOCH": "2025-12-26T21:05:12.419808", "MEAN_MOTION": 14.78954753, "ECCENTRICITY": 0.0010849, "INCLINATION": 97.7907, "RA_OF_ASC_NODE": 50.2586, "ARG_OF_PERICENTER": 317.2821, "MEAN_ANOMALY": 42.7547, "EPHEMERIS_TYPE": 0, "CLASSIFICATION_TYPE": "U", "NORAD_CAT_ID": 32783, "ELEMENT_SET_NO": 999, "REV_AT_EPOCH": 95333, "BSTAR": 5.1353e-05, "MEAN_MOTION_DOT": 3.29e-06, "MEAN_MOTION_DDOT": 0}, "tle": {"line1": "1 32783U 08021A   25360.87861597  .00000329  00000+0  51353-4 0  9995", "line2": "2 32783  97.7907  50.2586 0010849 317.2821  42.7547 14.78954753953331"}}, "geometry": {"type": "Point", "coordinates": [-26.06898263559737, 81.98893094806029]}}, {"type": "Feature", "properties": {"norad_id": 33320, "name": "HUANJING 1A (HJ-1A)", "group": "resource", "lat": -5.048913401402806, "lon": 168.18145145222215, "alt_km": 634.8888123843581, "timestamp": "2025-12-27T03:58:43.834761+00:00", "meta": {"OBJECT_NAME": "HUANJING 1A (HJ-1A)", "OBJECT_ID": "2008-041A", "EPOCH": "2025-12-26T20:40:18.128352", "MEAN_MOTION": 14.8343855, "ECCENTRICITY": 0.0019011, "INCLINATION": 97.6555, "RA_OF_ASC_NODE": 348.5705, "ARG_OF_PERICENTER": 349.1672, "MEAN_ANOMALY": 10.9131, "EPHEMERIS_TYPE": 0, "CLASSIFICATION_TYPE": "U", "NORAD_CAT_ID": 33320, "ELEMENT_SET_NO": 999, "REV_AT_EPOCH": 93285, "BSTAR": 0.00024089, "MEAN_MOTION_DOT": 1.933e-05, "MEAN_MOTION_DDOT": 0}, "tle": {"line1": "1 33320U 08041A   25360.86132093  .00001933  00000+0  24089-3 0  9993", "line2": "2 33320  97.6555 348.5705 0019011 349.1672  10.9131 14.83438550932859"}}, "geometry": {"type": "Point", "coordinates": [168.18145145222215, -5.048913401402806]}}, {"type": "Feature", "properties": {"norad_id": 33321, "name": "HUANJING 1B (HJ-1B)", "group": "resource", "lat": 15.85782178666981, "lon": -9.664107567124887, "alt_km": 595.4799876651969, "timestamp": "2025-12-27T03:58:43.834770+00:00", "meta": {"OBJECT_NAME": "HUANJING 1B (HJ-1B)", "OBJECT_ID": "2008-041B", "EPOCH": "2025-12-26T21:25:46.037280", "MEAN_MOTION": 14.82859937, "ECCENTRICITY": 0.0037639, "INCLINATION": 97.6413, "RA_OF_ASC_NODE": 352.2606, "ARG_OF_PERICENTER": 30.8984, "MEAN_ANOMALY": 329.4434, "EPHEMERIS_TYPE": 0, "CLASSIFICATION_TYPE": "U", "NORAD_CAT_ID": 33321, "ELEMENT_SET_NO": 999, "REV_AT_EPOCH": 93287, "BSTAR": 0.00020607, "MEAN_MOTION_DOT": 1.638e-05, "MEAN_MOTION_DDOT": 0}, "tle": {"line1": "1 33321U 08041B   25360.89289395  .00001638  00000+0  20607-3 0  9999", "line2": "2 33321  97.6413 352.2606 0037639  30.8984 329.4434 14.82859937932872"}}, "geometry": {"type": "Point", "coordinates": [-9.664107567124887, 15.85782178666981]}}, {"type": "Feature", "properties": {"norad_id": 33331, "name": "GEOEYE 1", "group": "resource", "lat": 35.84745698378391, "lon": -101.81327283977348, "alt_km": 675.1260724669555, "timestamp": "2025-12-27T03:58:43.834780+00:00", "meta": {"OBJECT_NAME": "GEOEYE 1", "OBJECT_ID": "2008-042A", "EPOCH": "2025-12-26T19:07:38.499168", "MEAN_MOTION": 14.64718939, "ECCENTRICITY": 0.000308, "INCLINATION": 98.1236, "RA_OF_ASC_NODE": 71.8994, "ARG_OF_PERICENTER": 224.3607, "MEAN_ANOMALY": 135.735, "EPHEMERIS_TYPE": 0, "CLASSIFICATION_TYPE": "U", "NORAD_CAT_ID": 33331, "ELEMENT_SET_NO": 999, "REV_AT_EPOCH": 92491, "BSTAR": 0.00012629, "MEAN_MOTION_DOT": 6.25e-06, "MEAN_MOTION_DDOT": 0}, "tle": {"line1": "1 33331U 08042A   25360.79697337  .00000625  00000+0  12629-3 0  9999", "line2": "2 33331  98.1236  71.8994 0003080 224.3607 135.7350 14.64718939924918"}}, "geometry": {"type": "Point", "coordinates": [-101.81327283977348, 35.84745698378391]}}, {"type": "Feature", "properties": {"norad_id": 33396, "name": "THEOS", "group": "resource", "lat": -26.1893850272086, "lon": -125.43246377667286, "alt_km": 831.011820032526, "timestamp": "2025-12-27T03:58:43.834790+00:00", "meta": {"OBJECT_NAME": "THEOS", "OBJECT_ID": "2008-049A", "EPOCH": "2025-12-26T20:14:45.998016", "MEAN_MOTION": 14.2009943, "ECCENTRICITY": 0.0001194, "INCLINATION": 98.5843, "RA_OF_ASC_NODE": 58.5155, "ARG_OF_PERICENTER": 91.9411, "MEAN_ANOMALY": 268.1902, "EPHEMERIS_TYPE": 0, "CLASSIFICATION_TYPE": "U", "NORAD_CAT_ID": 33396, "ELEMENT_SET_NO": 999, "REV_AT_EPOCH": 89350, "BSTAR": 2.2038e-05, "MEAN_MOTION_DOT": 4e-08, "MEAN_MOTION_DDOT": 0}, "tle": {"line1": "1 33396U 08049A   25360.84358794  .00000004  00000+0  22038-4 0  9991", "line2": "2 33396  98.5843  58.5155 0001194  91.9411 268.1902 14.20099430893507"}}, "geometry": {"type": "Point", "coordinates": [-125.43246377667286, -26.1893850272086]}}, {"type": "Feature", "properties": {"norad_id": 33412, "name": "COSMO-SKYMED 3", "group": "resource", "lat": 37.043250187894124, "lon": -154.17139074279368, "alt_km": 546.9697729651643, "timestamp": "2025-12-27T03:58:43.834800+00:00", "meta": {"OBJECT_NAME": "COSMO-SKYMED 3", "OBJECT_ID": "2008-054A", "EPOCH": "2025-12-26T19:50:13.183008", "MEAN_MOTION": 15.05477081, "ECCENTRICITY": 0.0017135, "INCLINATION": 97.845, "RA_OF_ASC_NODE": 211.4569, "ARG_OF_PERICENTER": 126.5702, "MEAN_ANOMALY": 233.7104, "EPHEMERIS_TYPE": 0, "CLASSIFICATION_TYPE": "U", "NORAD_CAT_ID": 33412, "ELEMENT_SET_NO": 999, "REV_AT_EPOCH": 93099, "BSTAR": 0.00040233, "MEAN_MOTION_DOT": 5.737e-05, "MEAN_MOTION_DDOT": 0}, "tle": {"line1": "1 33412U 08054A   25360.82654147  .00005737  00000+0  40233-3 0  9999", "line2": "2 33412  97.8450 211.4569 0017135 126.5702 233.7104 15.05477081930994"}}, "geometry": {"type": "Point", "coordinates": [-154.17139074279368, 37.043250187894124]}}, {"type": "Feature", "properties": {"norad_id": 33446, "name": "YAOGAN-4", "group": "resource", "lat": -76.39430841104863, "lon": -33.763957637055576, "alt_km": 619.1045005405276, "timestamp": "2025-12-27T03:58:43.834809+00:00", "meta": {"OBJECT_NAME": "YAOGAN-4", "OBJECT_ID": "2008-061A", "EPOCH": "2025-12-26T18:36:57.310848", "MEAN_MOTION": 14.82723581, "ECCENTRICITY": 0.0012963, "INCLINATION": 97.9198, "RA_OF_ASC_NODE": 290.7385, "ARG_OF_PERICENTER": 273.4167, "MEAN_ANOMALY": 86.5564, "EPHEMERIS_TYPE": 0, "CLASSIFICATION_TYPE": "U", "NORAD_CAT_ID": 33446, "ELEMENT_SET_NO": 999, "REV_AT_EPOCH": 92011, "BSTAR": 0.00019776, "MEAN_MOTION_DOT": 1.545e-05, "MEAN_MOTION_DDOT": 0}, "tle": {"line1": "1 33446U 08061A   25360.77566332  .00001545  00000+0  19776-3 0  9997", "line2": "2 33446  97.9198 290.7385 0012963 273.4167  86.5564 14.82723581920118"}}, "geometry": {"type": "Point", "coordinates": [-33.763957637055576, -76.39430841104863]}}]}